[{"OBJECT_NAME":"HAWK-2C","OBJECT_ID":"2021-006CT","EPOCH":"2026-03-09T16:13:22.454976","MEAN_MOTION":15.33286436,"ECCENTRICITY":0.0006943,"INCLINATION":97.2417,"RA_OF_ASC_NODE":114.9961,"ARG_OF_PERICENTER":184.0877,"MEAN_ANOMALY":176.031,"EPHEMERIS_TYPE":0,"CLASSIFICATION_TYPE":"U","NORAD_CAT_ID":47502,"ELEMENT_SET_NO":999,"REV_AT_EPOCH":28424,"BSTAR":0.00025492914,"MEAN_MOTION_DOT":8.129e-5,"MEAN_MOTION_DDOT":0},{"OBJECT_NAME":"STARLINK-31988","OBJECT_ID":"2024-150U","EPOCH":"2026-03-09T23:22:10.589952","MEAN_MOTION":15.30185319,"ECCENTRICITY":0.00010232,"INCLINATION":53.161,"RA_OF_ASC_NODE":305.7921,"ARG_OF_PERICENTER":102.7851,"MEAN_ANOMALY":257.3264,"EPHEMERIS_TYPE":0,"CLASSIFICATION_TYPE":"U","NORAD_CAT_ID":60601,"ELEMENT_SET_NO":999,"REV_AT_EPOCH":8800,"BSTAR":2.2288396e-5,"MEAN_MOTION_DOT":3.01e-6,"MEAN_MOTION_DDOT":0}]
